#dP2021  3 13 18  0  0.00000000      96 __u+U ITR00 EXT  IAC
## 2148 583200.00000000   900.00000000 59286 0.7500000000000
+  115   C06C07C08C09C10C11C12C13C14C16C19C20C21C22C23C24C25
+        C26C27C28C29C30C32C33C34C35C36C37C38C39C40C41C42C43
+        C44C45C46E01E02E03E04E05E07E08E09E11E12E13E14E15E18
+        E19E21E24E25E26E27E30E31E33G01G02G03G04G05G06G07G08
+        G09G10G11G12G13G14G15G16G17G18G19G21G22G23G24G25G26
+        G27G28G29G30G31G32J01J02J03R01R02R03R04R05R07R08R09
+        R11R12R13R14R15R16R17R18R19R20R21R22R24  0  0  0  0
++        11 10 11 10  9 10 10 10  8 10  8  9  9  8  9 10  9
++        10 10  9  8  8 10  8  8  7  9 10 12  9 11  9 10 10
++        10  8  9  8  7  9  7  8  8  8  8  8  9  8  9  9  7
++         9  7  9  8  8  9  8  7  8  7  8  7  9  7  8  8  7
++         6  8 10  7  7  6  8  8  8  8  7  8  7  8  7  8  8
++         7  8  7  8  7  8 12 10  8 10  8  8  8  8  8  9  9
++         9  8  9 10 10  9  9  7  8 10 10  9  9  0  0  0  0
%c M  cc GPS ccc cccc cccc cccc cccc ccccc ccccc ccccc ccccc
%c cc cc ccc ccc cccc cccc cccc cccc ccccc ccccc ccccc ccccc
%f  0.0000000  0.000000000  0.00000000000  0.000000000000000
%f  0.0000000  0.000000000  0.00000000000  0.000000000000000
%i    0    0    0    0      0      0      0      0         0
%i    0    0    0    0      0      0      0      0         0
/* IAC                                ULTRA-RAPID PREDICTION
/* S/V CLOCKS ARE ALIGNED TO GNSS TIME                      
/* G:C1WC2W R:C1PC2P E:C1XC5X C:C2IC6I J:C1CC2S             
/* PCV:IGS14_2134 OL/AL:FES2004  NONE     YN ORB:CoN CLK:CoN
*  2021 03 14  9 15  0.00000000
PC06  -7275.803430  26410.484570 -31465.683965    175.762827
PC07 -22948.859842  26288.527778  23561.433172    -15.817160
PC08 -16978.345254  38086.503324   7550.823072   -900.961971
PC09   5857.176847  34329.177179 -23171.736111    669.646102
PC10  -7980.502318  27998.022158  30579.623390    -71.965114
PC11  14192.245388  -5988.053089 -23208.146848   -869.779493
PC12  19847.903601  12465.440246 -15119.763003    863.775176
PC13  -7832.160496  40997.258321  -6702.647574    179.539846
PC14  25204.842515  -7950.769854   9073.758509    207.368660
PC16  -2769.482530  28975.643845 -30307.528088   -734.013112
PC19 -18237.811109  12811.035385 -16753.993504    761.063911
PC20 -27725.165535   2722.139568  -1332.309859   -929.449269
PC21  21092.092995   9500.539193 -15600.884604   -884.157400
PC22   2144.136797  15773.690571 -22913.556907   -916.057296
PC23   3296.204413 -25076.737214 -11788.332483   -877.611275
PC24  18845.235869  -6047.133106  19648.965994   -782.532236
PC25  14953.247707 -23000.784410   5040.165571   -948.743198
PC26  11688.118165  12244.073551  22180.670564    935.649496
PC27 -18313.777791 -19918.739878   6857.429937    498.385759
PC28  -7064.479551 -24788.176154 -10690.483247    -98.623278
PC29  -7732.132745  15442.831165  21912.757476    364.781965
PC30 -19102.539389  -3168.433674  20101.716199    452.246906
PC32 -21122.316379  -9390.276663  15647.210694   -912.176702
PC33  18244.389402 -12923.113776  16720.281993   -947.546983
PC34  18870.280547   2423.732130 -20412.472453   -719.355113
PC35   7629.059715  24488.749562  10942.101349   -375.438149
PC36 -15638.914240  22483.323321  -5346.977765   -742.130809
PC37 -10872.945387 -13268.326927 -21995.576025   -876.223841
PC38 -15038.753505  39228.866718   4270.945020    135.729613
PC39   -869.517774  29098.066540 -30449.653064     29.362044
PC40 -13918.526300  22991.750104  32462.019843    140.780654
PC41  -1850.647323 -15864.149713  22935.031775   -932.211974
PC42  27805.879535  -2350.533427    737.263994   -938.270241
PC43   8259.152426 -15105.053441 -21973.011409   -638.825054
PC44  18933.453513  19355.837358  -6677.082392     85.085284
PC45  -3251.289534  25049.207498  11885.892220    386.333375
PC46 -18896.090708   7131.565652 -19272.928063    363.657219
PE01 -24471.972982   4620.448536 -16010.601578  -1065.227241
PE02  24490.717356  -4710.147425  15920.979523    204.910075
PE03  27846.529718   5705.449574   8279.756330   -408.721489
PE04 -17837.987888   9068.292443 -21805.974419   -728.615330
PE05  21648.639817  17351.916545 -10313.098946   -297.167153
PE07  -2883.346769 -18766.290140  22713.651361   -512.560203
PE08  17478.894884  -9254.260774  22029.217082   6033.403447
PE09   3234.609906  18663.735736 -22744.338925   5735.294490
PE11    568.975172  29222.254855   4604.081777   6209.140799
PE12 -11515.212679  17670.585035  20763.639487   5311.028855
PE13   -419.177077 -29174.272463  -5014.723799    413.521402
PE14 -19733.647803 -16948.425060  -1041.692254  -1361.290400
PE15  11354.541412 -17766.765100 -20768.299861    824.738813
PE18  27043.229951   8735.451728 -12827.036664  -1488.577321
PE19 -27975.734895  -7406.794237  -6226.029731    226.468911
PE21 -12202.699005 -11442.209400 -24426.474412   -653.524235
PE24  -8358.457063  21589.557335  18443.925666   -791.964417
PE25  12017.319504  11591.241351  24441.043292   -528.431124
PE26 -12234.869784 -22908.816583  14212.997948   2043.686037
PE27   7548.959954 -21455.450115 -18937.561296     10.754850
PE30  23201.909445 -18298.657695  -1557.707295   3108.179846
PE31 -22746.839281  18801.607108   2353.149984   -479.155373
PE33 -16436.287409  -4100.981224  24284.779070   -466.515891
PG01 -13281.719028  14162.297587  17715.057668    741.551041
PG02  13396.077843  10908.156879 -19507.939735   -585.966790
PG03 -22716.964978  13187.137213  -3599.587323   -107.674127
PG04 -16674.056762   4967.348352 -20080.371242   -186.083381
PG05  23245.368437  -1355.217838 -13099.193176    -36.181849
PG06   6527.621364  22255.282590 -12828.462116      0.796736
PG07  -6866.106075  24545.970922  -6148.566594     89.404969
PG08 -21487.389533  -1548.233782  15731.854581    -13.693136
PG09  -6105.255927  14348.690859 -21556.652324   -330.924102
PG10  -1682.302095 -15556.086749  21539.962656    -80.684214
PG11 -13753.034446   8425.184551  20684.681349      0.712194
PG12  24678.278512  -9589.460761   -399.129725    -13.723739
PG13  22009.116913  11670.712215   9256.323517    107.666735
PG14   -495.420254  16183.226153  21041.536055     99.867305
PG15  21697.699565  -1017.134674  15157.936932   -163.238005
PG16 -22144.361940  -2910.534543 -14964.837933   -293.798915
PG17   9988.506986  20271.951880  14381.458773    409.442386
PG18   5158.603109 -25826.200845  -3196.340830    350.446715
PG19  16442.918046  19906.088409   6157.565946    -26.553223
PG21 -15343.740864   5622.866920  21593.906877    103.005613
PG22 -24218.242679   8821.406211   6205.845436   -660.765002
PG23  10206.144778 -17945.262003  16666.476310    117.537639
PG24  14871.844530  -8661.489030  19889.877293      1.104781
PG25  16259.205644 -16992.507781 -12327.243848     98.538465
PG26 -14609.070789  -9118.457691 -20339.712538     57.852623
PG27 -23268.409032 -12006.347880   5351.666734    -93.710746
PG28   1908.890257  15325.860664  22183.474054    602.350307
PG29   6411.249445 -13583.052962 -21944.864125   -311.566906
PG30   1258.730279  25767.208438   5842.086845   -398.206610
PG31  -8325.979461 -20070.215804 -15032.058089   -105.508198
PG32 -12606.191051 -19738.329770  12789.049378     21.133791
PJ01 -31392.082250  16028.594170 -18589.959022   -354.923477
PJ02 -29330.399825  30325.134484   3847.600676      3.341662
PJ03 -25659.657656  22954.948129  29402.237143     -1.732846
PR01  25262.005662    959.470685   3464.805740     76.373385
PR02  12815.836858  -8097.614789  20539.654312    470.681771
PR03  -6188.848550 -11341.634875  22048.076152     32.370627
PR04 -21467.141646  -8031.519070  11231.053792     77.821207
PR05 -24821.671882   -422.830215  -5901.099386     68.129474
PR07   6803.804167  11297.686758 -21785.757242    -42.559092
PR08  21515.277964   8007.168998 -11041.343287    -57.915429
PR09 -14826.908810  20700.147975    734.245123    -17.198310
PR11   8850.070693   6343.596908  23073.190564      2.304494
PR12  17129.469531 -10193.481410  15921.086199    212.446273
PR13  15021.856783 -20612.753409   -182.478819    -51.974483
PR14   4009.912460 -18828.742801 -16735.003153     61.995949
PR15  -9114.139493  -6175.085710 -22996.043438    104.929428
PR16 -17195.337668  11384.992191 -15131.196769    -12.478897
PR17  -6932.020582 -23766.813570  -6069.400091    407.853077
PR18 -13093.903501 -19084.495746  10808.591179     69.740605
PR19 -12340.886544  -5291.496473  21691.426256   -135.668454
PR20  -4081.034962  14728.606629  20416.727795    -45.205750
PR21   7478.357543  23895.734345   4927.656689   -194.269733
PR22  13128.667000  18327.366003 -11843.138109   -102.523426
PR24   3807.689816 -15566.196661 -19824.807018     34.942254
EOF
